NORAD_CAT_ID,OBJECT_NAME,OBJECT_TYPE,EPOCH,MEAN_MOTION,ECCENTRICITY,INCLINATION,RA_OF_ASC_NODE,ARG_OF_PERICENTER,MEAN_ANOMALY,BSTAR,MEAN_MOTION_DOT,MEAN_MOTION_DDOT,TLE_LINE0,TLE_LINE1,TLE_LINE2,SEMIMAJOR_AXIS,PERIOD,APOGEE,PERIGEE,DECAYED
54157.0,STARLINK-5290,PAYLOAD,2022-12-04 22:00:00,15.23230418,0.0001681,53.2172,320.0373,41.2295,50.1983,-0.055576,-0.01223195,0.0,0 STARLINK-5290,1 54157U 22141A   22338.91667824 -.01223195  00000-0 -55576-1 0  9997,2 54157  53.2172 320.0373 0001681  41.2295  50.1983 15.23230418  1300,6874.241,94.536,497.262,494.951,0.0
54157.0,STARLINK-5290,PAYLOAD,2022-12-05 04:00:00,15.22597932,0.0001494,53.2175,318.8917,44.9729,337.8057,-0.057232,-0.01235018,0.0,0 STARLINK-5290,1 54157U 22141A   22339.16667824 -.01235018  00000-0 -57232-1 0  9993,2 54157  53.2175 318.8917 0001494  44.9729 337.8057 15.22597932  5987,6876.145,94.575,499.037,496.983,0.0
54157.0,STARLINK-5290,PAYLOAD,2022-12-05 14:00:01,15.21507411,0.0001753,53.217,316.9822,45.5639,101.5991,-0.057891,-0.01211579,0.0,0 STARLINK-5290,1 54157U 22141A   22339.58335648 -.01211579  00000-0 -57891-1 0  9992,2 54157  53.2170 316.9822 0001753  45.5639 101.5991 15.21507411  1308,6879.43,94.643,502.501,500.089,0.0
54157.0,STARLINK-5290,PAYLOAD,2022-12-05 22:00:01,15.20647184,0.0001686,53.2174,315.4557,51.0177,122.436,-0.059118,-0.01206674,0.0,0 STARLINK-5290,1 54157U 22141A   22339.91668981 -.01206674  00000-0 -59118-1 0  9992,2 54157  53.2174 315.4557 0001686  51.0177 122.4360 15.20647184  1308,6882.024,94.697,505.05,502.729,0.0
54157.0,STARLINK-5290,PAYLOAD,2022-12-06 06:00:00,15.19818838,0.0001694,53.2174,313.9358,54.4656,144.1664,-0.062638,-0.01244417,0.0,0 STARLINK-5290,1 54157U 22141A   22340.25001157 -.01244417  00000-0 -62638-1 0  9995,2 54157  53.2174 313.9358 0001694  54.4656 144.1664 15.19818838  6147,6884.525,94.748,507.556,505.223,0.0
54157.0,STARLINK-5290,PAYLOAD,2022-12-06 14:00:01,15.18961892,0.0001784,53.2172,312.414,48.1651,174.7604,-0.064327,-0.01246235,0.0,0 STARLINK-5290,1 54157U 22141A   22340.58335648 -.01246235  00000-0 -64327-1 0  9993,2 54157  53.2172 312.4140 0001784  48.1651 174.7604 15.18961892  1307,6887.114000000001,94.802,510.207,507.75,0.0
54157.0,STARLINK-5290,PAYLOAD,2022-12-06 22:00:00,15.1809786,0.0001599,53.2173,310.8942,46.503,199.5617,-0.06539,-0.01236257,0.0,0 STARLINK-5290,1 54157U 22141A   22340.91667824 -.01236257  00000-0 -65390-1 0  9998,2 54157  53.2173 310.8942 0001599  46.5030 199.5617 15.18097860  1301,6889.727,94.856,512.693,510.49,0.0
54157.0,STARLINK-5290,PAYLOAD,2022-12-07 14:00:01,15.15620321,0.0001334,53.2166,307.8612,55.6952,234.0673,-0.0076962,-0.00145345,0.0,0 STARLINK-5290,1 54157U 22141A   22341.58334491 -.00145345  00000-0 -76962-2 0  9997,2 54157  53.2166 307.8612 0001334  55.6952 234.0673 15.15620321  6352,6897.233,95.011,520.018,518.178,0.0
54157.0,STARLINK-5290,PAYLOAD,2022-12-07 22:00:00,15.14504892,0.0001701,53.2161,306.3471,57.7022,252.3284,0.011247,0.00215615,0.0,0 STARLINK-5290,1 54157U 22141A   22341.91667824  .00215615  00000-0  11247-1 0  9993,2 54157  53.2161 306.3471 0001701  57.7022 252.3284 15.14504892  6403,6900.619000000002,95.081,523.658,521.31,0.0
54157.0,STARLINK-5290,PAYLOAD,2022-12-08 06:00:00,15.14646748,0.0001828,53.2175,304.8398,35.5209,293.0487,-0.070245,-0.01205498,0.0,0 STARLINK-5290,1 54157U 22141A   22342.25001157 -.01205498  00000-0 -70245-1 0  9996,2 54157  53.2175 304.8398 0001828  35.5209 293.0487 15.14646748  6459,6900.188,95.072,523.315,520.7919999999998,0.0
54157.0,STARLINK-5290,PAYLOAD,2022-12-08 14:00:01,15.13672277,0.0001357,53.2168,303.3301,45.7219,300.9488,-0.06119,-0.01034232,0.0,0 STARLINK-5290,1 54157U 22141A   22342.58334491 -.01034232  00000-0 -61190-1 0  9997,2 54157  53.2168 303.3301 0001357  45.7219 300.9488 15.13672277  1303,6903.149,95.133,525.951,524.078,0.0
54157.0,STARLINK-5290,PAYLOAD,2022-12-08 22:00:01,15.129304800000002,0.0001459,53.2176,301.8223,50.0001,313.7014,-0.073488,-0.01201614,0.0,0 STARLINK-5290,1 54157U 22141A   22342.91668981 -.01201614  00000-0 -73488-1 0  9991,2 54157  53.2176 301.8223 0001459  50.0001 313.7014 15.12930480  1308,6905.406,95.18,528.278,526.263,0.0
54157.0,STARLINK-5290,PAYLOAD,2022-12-09 06:00:02,15.11941821,0.0001709,53.2179,300.32,43.3097,336.4439,-0.063341,-0.01020789,0.0,0 STARLINK-5290,1 54157U 22141A   22343.25002315 -.01020789  00000-0 -63341-1 0  9991,2 54157  53.2179 300.3200 0001709  43.3097 336.4439 15.11941821  6609,6908.416,95.242,531.461,529.1,0.0
54157.0,STARLINK-5290,PAYLOAD,2022-12-09 14:00:01,15.11258545,0.0001599,53.2175,298.8158,42.4952,352.0704,-0.081264,-0.01262271,0.0,0 STARLINK-5290,1 54157U 22141A   22343.58334491 -.01262271  00000-0 -81264-1 0  9998,2 54157  53.2175 298.8158 0001599  42.4952 352.0704 15.11258545  1300,6910.498000000001,95.285,533.4680000000002,531.258,0.0
54157.0,STARLINK-5290,PAYLOAD,2022-12-10 00:00:00,15.10128022,0.0001955,53.2176,296.9396,41.4532,100.3857,-0.076969,-0.01166787,0.0,0 STARLINK-5290,1 54157U 22141A   22344.00001157 -.01166787  00000-0 -76969-1 0  9997,2 54157  53.2176 296.9396 0001955  41.4532 100.3857 15.10128022  6711,6913.946,95.356,537.163,534.46,0.0
54157.0,STARLINK-5290,PAYLOAD,2022-12-10 14:00:01,15.08832211,0.0001898,53.2175,294.318,40.1124,33.2753,0.00039097,5.938e-05,0.0,0 STARLINK-5290,1 54157U 22141A   22344.58334491  .00005938  00000-0  39097-3 0  9990,2 54157  53.2175 294.3180 0001898  40.1124  33.2753 15.08832211  6800,6917.904,95.438,541.082,538.456,0.0
54157.0,STARLINK-5290,PAYLOAD,2022-12-10 22:00:00,15.08841377,0.0001584,53.2176,292.8229,48.5263,36.4518,-0.00082898,-0.00013457,0.0,0 STARLINK-5290,1 54157U 22141A   22344.91667824 -.00013457  00000-0 -82898-3 0  9990,2 54157  53.2176 292.8229 0001584  48.5263  36.4518 15.08841377  1303,6917.876,95.437,540.837,538.645,0.0
54157.0,STARLINK-5290,PAYLOAD,2022-12-11 14:00:01,15.0887329,0.0001706999999999,53.2179,289.8344,54.9566,53.2859,-0.009102,-0.00142427,0.0,0 STARLINK-5290,1 54157U 22141A   22345.58334491 -.00142427  00000-0 -91020-2 0  9991,2 54157  53.2179 289.8344 0001707  54.9566  53.2859 15.08873290  6954,6917.779,95.435,540.825,538.4630000000002,0.0
54157.0,STARLINK-5290,PAYLOAD,2022-12-11 22:00:01,15.08753057,0.0001653,53.2176,288.3381,58.9681,60.9061,0.0034006,0.00054119,0.0,0 STARLINK-5290,1 54157U 22141A   22345.91668981  .00054119  00000-0  34006-2 0  9991,2 54157  53.2176 288.3381 0001653  58.9681  60.9061 15.08753057  7003,6918.146,95.443,541.155,538.868,0.0
54157.0,STARLINK-5290,PAYLOAD,2022-12-12 06:00:00,15.08796691,0.0001709,53.2173,286.8439,49.1506,82.2047,0.0056583,0.00090818,0.0,0 STARLINK-5290,1 54157U 22141A   22346.25001157  .00090818  00000-0  56583-2 0  9995,2 54157  53.2173 286.8439 0001709  49.1506  82.2047 15.08796691  7054,6918.013000000001,95.44,541.06,538.695,0.0
54157.0,STARLINK-5290,PAYLOAD,2022-12-12 14:00:01,15.08859605,0.0001613,53.2175,285.3458,53.3198,89.5996,-0.0019133,-0.00030626,0.0,0 STARLINK-5290,1 54157U 22141A   22346.58334491 -.00030626  00000-0 -19133-2 0  9994,2 54157  53.2175 285.3458 0001613  53.3198  89.5996 15.08859605  7103,6917.82,95.436,540.8009999999998,538.57,0.0
54157.0,STARLINK-5290,PAYLOAD,2022-12-12 22:00:00,15.08848446,0.0001774999999999,53.2173,283.8506,57.8899,96.6293,-0.0027944,-0.00044497,0.0,0 STARLINK-5290,1 54157U 22141A   22346.91667824 -.00044497  00000-0 -27944-2 0  9990,2 54157  53.2173 283.8506 0001775  57.8899  96.6293 15.08848446  1300,6917.855,95.437,540.947,538.492,0.0
54157.0,STARLINK-5290,PAYLOAD,2022-12-13 14:00:01,15.08802531,0.0001766,53.2172,280.8544,53.2718,124.4154,0.0060261,0.00096839,0.0,0 STARLINK-5290,1 54157U 22141A   22347.58334491  .00096839  00000-0  60261-2 0  9999,2 54157  53.2172 280.8544 0001766  53.2718 124.4154 15.08802531  7259,6917.995,95.44,541.082,538.638,0.0
54157.0,STARLINK-5290,PAYLOAD,2022-12-13 22:00:00,15.08874627,0.0001895,53.2172,279.3618,59.2232,130.0457,-0.0021102,-0.00033747,0.0,0 STARLINK-5290,1 54157U 22141A   22347.91667824 -.00033747  00000-0 -21102-2 0  9997,2 54157  53.2172 279.3618 0001895  59.2232 130.0457 15.08874627  7304,6917.775,95.435,540.95,538.3290000000002,0.0
54157.0,STARLINK-5290,PAYLOAD,2022-12-14 14:00:01,15.08852364,0.0001797,53.2172,276.3688,54.2719,158.2009,-0.0010541,-0.00017031,0.0,0 STARLINK-5290,1 54157U 22141A   22348.58334491 -.00017031  00000-0 -10541-2 0  9995,2 54157  53.2172 276.3688 0001797  54.2719 158.2009 15.08852364  1307,6917.843000000003,95.437,540.951,538.464,0.0
54157.0,STARLINK-5290,PAYLOAD,2022-12-14 18:00:00,15.0882883,0.0001788,53.2171,275.6201,57.3024,340.9784,0.0020268,0.00032106,0.0,0 STARLINK-5290,1 54157U 22141A   22348.75001157  .00032106  00000-0  20268-2 0  9999,2 54157  53.2171 275.6201 0001788  57.3024 340.9784 15.08828830  7433,6917.915,95.438,541.016,538.543,0.0
54157.0,STARLINK-5290,PAYLOAD,2022-12-15 04:57:35,15.08847709,0.0002013,53.218,273.5722,49.8981,310.2188,5.6995e-05,6.19e-06,0.0,0 STARLINK-5290,1 54157U 22141A   22349.20666367  .00000619  00000-0  56995-4 0  9992,2 54157  53.2180 273.5722 0002013  49.8981 310.2188 15.08847709  7500,6917.857,95.437,541.114,538.3290000000002,0.0
54157.0,STARLINK-5290,PAYLOAD,2022-12-15 19:16:03,15.08852714,0.0001893,53.2183,270.8958,51.5915,308.5247,0.00011582,1.556e-05,0.0,0 STARLINK-5290,1 54157U 22141A   22349.80281637  .00001556  00000-0  11582-3 0  9994,2 54157  53.2183 270.8958 0001893  51.5915 308.5247 15.08852714  7593,6917.842,95.437,541.016,538.3969999999998,0.0
54157.0,STARLINK-5290,PAYLOAD,2022-12-16 04:48:22,15.08849575,0.0001985,53.2183,269.1119,49.285,310.8314,2.6758e-05,1.38e-06,0.0,0 STARLINK-5290,1 54157U 22141A   22350.20025914  .00000138  00000-0  26758-4 0  9991,2 54157  53.2183 269.1119 0001985  49.2850 310.8314 15.08849575  7656,6917.851,95.437,541.089,538.3430000000002,0.0
